Total gap duration: 10:33:59.753852
STARLINK-3071
1 49147U 21082T   24101.42090817 -.00000355  00000+0 -21903-4 0  9990
2 49147  69.9986 215.0386 0003324 277.4501  82.6280 14.98344176143547
Total gap duration: 10:33:33.700564
STARLINK-4055
1 53161U 22083AF  24101.19611493  .00000664  00000+0  59825-4 0  9991
2 53161  53.2182  59.7804 0001287  92.7416 267.3723 15.08838136 96546
Total gap duration: 10:33:02.814712
STARLINK-2333
1 47877U 21021T   24101.18029197  .00011134  00000+0  76472-3 0  9992
2 47877  53.0532 167.3473 0001150  99.6967 260.4152 15.06423211170437
Total gap duration: 10:33:36.901311
STARLINK-31495
1 59313U 24056T   24101.25001157 -.00024265  00000+0 -16373-3 0  9990
2 59313  43.0010 261.1012 0002157 261.8490 196.6403 15.73829379  3814
Total gap duration: 10:32:57.026291
STARLINK-5405
1 54863U 22177AV  24100.92785662  .00000480  00000+0  50575-4 0  9994
2 54863  43.0045 317.1741 0001235 273.1539  86.9162 15.02533348 71991
Total gap duration: 10:28:41.321058
STARLINK-4758
1 53820U 22114C   24100.56134344  .00003630  00000+0  24606-3 0  9997
2 53820  53.2158 202.8496 0001788  91.0421 269.0776 15.08839948 87283
Total gap duration: 10:31:59.694917
STARLINK-30078
1 56841U 23079U   24101.24273958  .00002019  00000+0  16446-3 0  9998
2 56841  43.0024 302.2095 0001522 271.9317  88.1351 15.02537595 47492
Total gap duration: 10:30:37.116448
STARLINK-30465
1 57891U 23146A   24101.54200178  .00000411  00000+0  45486-4 0  9997
2 57891  43.0035 147.1490 0001078 274.9128  85.1591 15.02538763 31948
Total gap duration: 10:31:52.371160
STARLINK-5854
1 55923U 23037K   24100.88948277 -.00000433  00000+0 -28493-4 0  9990
2 55923  69.9951 266.3763 0003063 270.7453  89.3356 14.98330120 59153
Total gap duration: 10:30:01.575985
STARLINK-4251
1 53083U 22077AS  24101.39071987  .00000790  00000+0  66128-4 0  9991
2 53083  97.6574 283.2057 0001726  99.3227 260.8193 15.01262742 96738
Total gap duration: 10:30:43.190363
